[{"OBJECT_NAME":"BANDWAGON-4 OBJECT D","OBJECT_ID":"2025-248D","EPOCH":"2026-03-08T15:55:23.357856","MEAN_MOTION":15.20246176,"ECCENTRICITY":0.0005553,"INCLINATION":45.4053,"RA_OF_ASC_NODE":299.733,"ARG_OF_PERICENTER":216.9625,"MEAN_ANOMALY":143.088,"EPHEMERIS_TYPE":0,"CLASSIFICATION_TYPE":"U","NORAD_CAT_ID":66296,"ELEMENT_SET_NO":999,"REV_AT_EPOCH":1922,"BSTAR":0.00048956709,"MEAN_MOTION_DOT":0.00010544,"MEAN_MOTION_DDOT":0},{"OBJECT_NAME":"FENGYUN 1C DEB","OBJECT_ID":"1999-025DVA","EPOCH":"2026-03-08T04:27:49.439232","MEAN_MOTION":15.15496966,"ECCENTRICITY":0.00338373,"INCLINATION":98.8203,"RA_OF_ASC_NODE":206.4896,"ARG_OF_PERICENTER":4.2711,"MEAN_ANOMALY":355.88,"EPHEMERIS_TYPE":0,"CLASSIFICATION_TYPE":"U","NORAD_CAT_ID":36225,"ELEMENT_SET_NO":999,"REV_AT_EPOCH":68062,"BSTAR":0.0036229129,"MEAN_MOTION_DOT":0.00070122,"MEAN_MOTION_DDOT":0}]
